     2              NAVIGATION DATA                         RINEX VERSION / TYPE
CCRINEXN V1.6.0 UX  CDDIS               17-MAY-17 17:31     PGM / RUN BY / DATE 
IGS BROADCAST EPHEMERIS FILE                                COMMENT             
    0.7451D-08  0.2235D-07 -0.5960D-07 -0.1192D-06          ION ALPHA           
    0.8602D+05  0.8192D+05 -0.1311D+06 -0.5243D+06          ION BETA            
    0.186264514923D-08 0.266453525910D-14   319488     1949 DELTA-UTC: A0,A1,T,W
    18                                                      LEAP SECONDS        
                                                            END OF HEADER       
14 17  5 16  8  0  0.0-0.708824954927D-04-0.136424205266D-11 0.000000000000D+00
    0.400000000000D+02 0.390625000000D+01 0.468162357984D-08 0.174202762128D+01
    0.745058059692D-08 0.906888849568D-02 0.763125717640D-05 0.515364748955D+04
    0.201600000000D+06-0.143423676491D-06-0.100338606203D+00-0.204890966415D-06
    0.962498945613D+00 0.235906250000D+03-0.196079770856D+01-0.800783355841D-08
   -0.380372986919D-09 0.100000000000D+01 0.194900000000D+04 0.000000000000D+00
    0.280000000000D+01 0.000000000000D+00-0.931322574616D-08 0.400000000000D+02
    0.194418000000D+06 0.400000000000D+01 0.000000000000D+00 0.000000000000D+00
15 17  5 16  8  0  0.0-0.349977053702D-03-0.682121026330D-12 0.000000000000D+00
    0.960000000000D+02-0.843750000000D+00 0.565130682818D-08 0.118326518315D+01
    0.260770320892D-06 0.913669646252D-02 0.695697963238D-05 0.515378968620D+04
    0.201600000000D+06-0.186264514923D-07-0.248248041647D+00 0.143423676491D-06
    0.929450612400D+00 0.229843750000D+03 0.581958133646D+00-0.858285751047D-08
   -0.442875590403D-09 0.100000000000D+01 0.194900000000D+04 0.000000000000D+00
    0.200000000000D+01 0.000000000000D+00-0.107102096081D-07 0.960000000000D+02
    0.194418000000D+06 0.400000000000D+01 0.000000000000D+00 0.000000000000D+00
16 17  5 16  8  0  0.0 0.333501957357D-04 0.682121026330D-12 0.000000000000D+00
    0.950000000000D+02 0.471562500000D+02 0.380765860426D-08 0.300372918485D+01
    0.238046050072D-05 0.936998671386D-02 0.445917248726D-05 0.515369689751D+04
    0.201600000000D+06-0.651925802231D-07 0.199456210652D+01-0.745058059692D-07
    0.989562567276D+00 0.309843750000D+03 0.447767281247D+00-0.780461080765D-08
    0.117862052285D-09 0.100000000000D+01 0.194900000000D+04 0.000000000000D+00
    0.200000000000D+01 0.000000000000D+00-0.107102096081D-07 0.950000000000D+02
    0.194400000000D+06 0.400000000000D+01 0.000000000000D+00 0.000000000000D+00
17 17  5 16  8  0  0.0-0.179370399564D-03 0.181898940355D-11 0.000000000000D+00
    0.300000000000D+01-0.785625000000D+02 0.394087843912D-08 0.204636354856D+01
   -0.409036874771D-05 0.116161142942D-01 0.489316880703D-05 0.515362964821D+04
    0.201600000000D+06 0.689178705216D-07 0.301221879397D+01-0.284984707832D-06
    0.980169852009D+00 0.293468750000D+03-0.184953503370D+01-0.782425448303D-08
    0.139291516337D-10 0.100000000000D+01 0.194900000000D+04 0.000000000000D+00
    0.200000000000D+01 0.000000000000D+00-0.111758708954D-07 0.300000000000D+01
    0.194400000000D+06 0.400000000000D+01 0.000000000000D+00 0.000000000000D+00
18 17  5 16  8  0  0.0 0.615695025772D-03 0.181898940355D-11 0.000000000000D+00
    0.790000000000D+02 0.484375000000D+01 0.552630162122D-08-0.277897069215D+01
    0.184401869774D-06 0.180696257157D-01 0.714510679245D-05 0.515375724411D+04
    0.201600000000D+06 0.402331352234D-06-0.126875852532D+01 0.149011611938D-07
    0.925198816553D+00 0.217531250000D+03-0.180511391975D+01-0.818855537191D-08
    0.428589281035D-09 0.100000000000D+01 0.194900000000D+04 0.000000000000D+00
    0.200000000000D+01 0.000000000000D+00-0.111758708954D-07 0.790000000000D+02
    0.194400000000D+06 0.400000000000D+01 0.000000000000D+00 0.000000000000D+00
20 17  5 16  8  0  0.0 0.472416169941D-03 0.147792889038D-11 0.000000000000D+00
    0.980000000000D+02 0.675000000000D+01 0.563880630749D-08 0.116027539189D+01
    0.344589352608D-06 0.433224486187D-02 0.768527388573D-05 0.515367097473D+04
    0.201600000000D+06-0.838190317154D-07-0.132014145429D+01-0.465661287308D-07
    0.926540907839D+00 0.214656250000D+03 0.159648950728D+01-0.847928176755D-08
    0.396087927223D-09 0.100000000000D+01 0.194900000000D+04 0.000000000000D+00
    0.200000000000D+01 0.000000000000D+00-0.838190317154D-08 0.980000000000D+02
    0.194400000000D+06 0.400000000000D+01 0.000000000000D+00 0.000000000000D+00
21 17  5 16  8  0  0.0-0.506719108671D-03 0.216004991671D-11 0.000000000000D+00
    0.700000000000D+02-0.625312500000D+02 0.470341020163D-08-0.185940642747D+01
   -0.287406146526D-05 0.239906714996D-01 0.886432826519D-05 0.515368736076D+04
    0.201600000000D+06 0.430271029472D-06-0.230957511068D+01 0.299885869026D-06
    0.939616548629D+00 0.187093750000D+03-0.167354446587D+01-0.782818321811D-08
    0.338585532018D-09 0.100000000000D+01 0.194900000000D+04 0.000000000000D+00
    0.200000000000D+01 0.000000000000D+00-0.977888703346D-08 0.700000000000D+02
    0.200772000000D+06 0.400000000000D+01 0.000000000000D+00 0.000000000000D+00
22 17  5 16  8  0  0.0 0.849831849337D-05-0.121644916362D-10 0.000000000000D+00
    0.330000000000D+02 0.528125000000D+01 0.570952352064D-08 0.155117301286D+01
    0.195577740669D-06 0.754177337512D-02 0.726617872715D-05 0.515382361793D+04
    0.201600000000D+06-0.104308128357D-06-0.126888139727D+01-0.223517417908D-06
    0.923234968991D+00 0.223343750000D+03-0.173689046302D+01-0.850856896051D-08
    0.329656579812D-09 0.100000000000D+01 0.194900000000D+04 0.000000000000D+00
    0.200000000000D+01 0.000000000000D+00-0.176951289177D-07 0.330000000000D+02
    0.194400000000D+06 0.000000000000D+00 0.000000000000D+00 0.000000000000D+00
23 17  5 16  8  0  0.0-0.211851205677D-03-0.682121026330D-12 0.000000000000D+00
    0.610000000000D+02 0.387500000000D+01 0.524771858854D-08 0.744064027493D+00
    0.497326254845D-06 0.116740257945D-01 0.693276524544D-05 0.515374564171D+04
    0.201600000000D+06-0.335276126862D-07-0.185036372559D+00 0.987201929092D-07
    0.944737271002D+00 0.237187500000D+03-0.246648587376D+01-0.847356724380D-08
   -0.463947896721D-09 0.100000000000D+01 0.194900000000D+04 0.000000000000D+00
    0.200000000000D+01 0.000000000000D+00-0.204890966415D-07 0.610000000000D+02
    0.194400000000D+06 0.400000000000D+01 0.000000000000D+00 0.000000000000D+00
24 17  5 16  8  0  0.0-0.348798930645D-04-0.568434188608D-12 0.000000000000D+00
    0.640000000000D+02 0.631562500000D+02 0.473555439771D-08 0.129024598164D+00
    0.325590372086D-05 0.565482978709D-02 0.900216400623D-05 0.515369740105D+04
    0.201600000000D+06 0.447034835815D-07 0.837976612427D+00 0.409781932831D-07
    0.945661702103D+00 0.193625000000D+03 0.486952125705D+00-0.818426947910D-08
   -0.365372362083D-09 0.100000000000D+01 0.194900000000D+04 0.000000000000D+00
    0.200000000000D+01 0.000000000000D+00 0.279396772385D-08 0.640000000000D+02
    0.194418000000D+06 0.400000000000D+01 0.000000000000D+00 0.000000000000D+00
25 17  5 16  8  0  0.0-0.388048589230D-03-0.659383658785D-11 0.000000000000D+00
    0.690000000000D+02 0.643125000000D+02 0.405731186047D-08-0.182694248029D+01
    0.334158539772D-05 0.652059831191D-02 0.421330332756D-05 0.515359381103D+04
    0.201600000000D+06 0.856816768646D-07 0.192052942697D+01-0.154599547386D-06
    0.977000276143D+00 0.307656250000D+03 0.808523845121D+00-0.796104589523D-08
    0.131434046184D-09 0.100000000000D+01 0.194900000000D+04 0.000000000000D+00
    0.200000000000D+01 0.000000000000D+00 0.558793544769D-08 0.690000000000D+02
    0.194418000000D+06 0.400000000000D+01 0.000000000000D+00 0.000000000000D+00
26 17  5 16  8  0  0.0-0.503779388964D-03 0.432009983342D-11 0.000000000000D+00
    0.710000000000D+02 0.579062500000D+02 0.449947313540D-08-0.244411006629D+01
    0.304356217384D-05 0.183257285971D-02 0.439770519733D-05 0.515370390129D+04
    0.201600000000D+06-0.745058059692D-08 0.190529812665D+01 0.186264514923D-07
    0.958778110031D+00 0.294875000000D+03 0.966027011017D-01-0.823284293095D-08
    0.144291724615D-09 0.100000000000D+01 0.194900000000D+04 0.000000000000D+00
    0.200000000000D+01 0.000000000000D+00 0.745058059692D-08 0.710000000000D+02
    0.194400000000D+06 0.400000000000D+01 0.000000000000D+00 0.000000000000D+00
27 17  5 16  8  0  0.0 0.258522573859D-03 0.670752342558D-11 0.000000000000D+00
    0.520000000000D+02-0.608750000000D+02 0.418624580251D-08 0.211781873030D+01
   -0.319257378578D-05 0.480114982929D-02 0.437535345554D-05 0.515366524124D+04
    0.201600000000D+06-0.167638063431D-07 0.296032480774D+01 0.540167093277D-07
    0.975047902248D+00 0.301250000000D+03 0.343909836265D+00-0.807855078978D-08
   -0.371444043564D-10 0.100000000000D+01 0.194900000000D+04 0.000000000000D+00
    0.200000000000D+01 0.000000000000D+00 0.139698386192D-08 0.520000000000D+02
    0.194400000000D+06 0.400000000000D+01 0.000000000000D+00 0.000000000000D+00
28 17  5 16  8  0  0.0 0.613183714449D-03 0.306954461848D-11 0.000000000000D+00
    0.150000000000D+02 0.511562500000D+02 0.372944106048D-08 0.294878913400D+01
    0.268407166004D-05 0.197275257669D-01 0.351853668690D-05 0.515364871407D+04
    0.201600000000D+06 0.197440385819D-06 0.199915170040D+01 0.186264514923D-08
    0.988357090594D+00 0.324437500000D+03-0.156964003049D+01-0.752031325123D-08
    0.575023952056D-10 0.100000000000D+01 0.194900000000D+04 0.000000000000D+00
    0.200000000000D+01 0.000000000000D+00-0.111758708954D-07 0.150000000000D+02
    0.194400000000D+06 0.400000000000D+01 0.000000000000D+00 0.000000000000D+00
